CSS (TIANHE)            
1 48274U 21035A   24214.87054407  .00020707  00000+0  25897-3 0  9993
2 48274  41.4675 164.4601 0001028 314.9515  45.1240 15.59318705186246
